NORAD_CAT_ID,OBJECT_NAME,OBJECT_TYPE,EPOCH,MEAN_MOTION,ECCENTRICITY,INCLINATION,RA_OF_ASC_NODE,ARG_OF_PERICENTER,MEAN_ANOMALY,BSTAR,MEAN_MOTION_DOT,MEAN_MOTION_DDOT,TLE_LINE0,TLE_LINE1,TLE_LINE2,SEMIMAJOR_AXIS,PERIOD,APOGEE,PERIGEE,DECAYED
53277.0,STARLINK-4178,PAYLOAD,2024-02-09 20:07:29,15.08833506,0.000172,53.2205,350.7692,89.269,270.8499,0.00013193,1.812e-05,0.0,0 STARLINK-4178,1 53277U 22086AM  24040.83853903  .00001812  00000-0  13193-3 0  9993,2 53277  53.2205 350.7692 0001720  89.2690 270.8499 15.08833506 86461,6917.9,95.438,540.955,538.575,0.0
53277.0,STARLINK-4178,PAYLOAD,2024-02-10 05:39:48,15.08842707,0.0001562,53.2197,348.9805,105.0914,255.0251,0.00011417,1.53e-05,0.0,0 STARLINK-4178,1 53277U 22086AM  24041.23597328  .00001530  00000-0  11417-3 0  9998,2 53277  53.2197 348.9805 0001562 105.0914 255.0251 15.08842707 86527,6917.872,95.437,540.818,538.657,0.0
53277.0,STARLINK-4178,PAYLOAD,2024-02-10 19:58:16,15.08838394,0.0001371,53.2182,346.3007,115.9903,244.123,-0.00011096,-2.053e-05,0.0,0 STARLINK-4178,1 53277U 22086AM  24041.83213565 -.00002053  00000-0 -11096-3 0  9998,2 53277  53.2182 346.3007 0001371 115.9903 244.1230 15.08838394 86616,6917.885,95.438,540.699,538.802,0.0
53277.0,STARLINK-4178,PAYLOAD,2024-02-11 03:55:11,15.08851224,0.0001495,53.2191,344.8197,85.8286,274.2877,3.04e-05,1.96e-06,0.0,0 STARLINK-4178,1 53277U 22086AM  24042.16333218  .00000196  00000-0  30400-4 0  9998,2 53277  53.2191 344.8197 0001495  85.8286 274.2877 15.08851224 86668,6917.846,95.437,540.745,538.677,0.0
53277.0,STARLINK-4178,PAYLOAD,2024-02-11 05:30:34,15.0885545,0.000135,53.2184,344.519,99.9275,260.187,6.7579e-05,7.88e-06,0.0,0 STARLINK-4178,1 53277U 22086AM  24042.22956694  .00000788  00000-0  67579-4 0  9998,2 53277  53.2184 344.5190 0001350  99.9275 260.1870 15.08855450 86846,6917.833,95.437,540.632,538.764,0.0
53277.0,STARLINK-4178,PAYLOAD,2024-02-12 05:21:21,15.0885946,0.0002006,53.2174,340.0551,66.5961,293.5242,0.00031185,4.681e-05,0.0,0 STARLINK-4178,1 53277U 22086AM  24043.22316712  .00004681  00000-0  31185-3 0  9999,2 53277  53.2174 340.0551 0002006  66.5961 293.5242 15.08859460 86824,6917.821,95.436,541.074,538.298,0.0
53277.0,STARLINK-4178,PAYLOAD,2024-02-12 19:39:50,15.0884371,0.0001678,53.2179,337.3809,95.0839,265.0345,-2.4401e-05,-6.76e-06,0.0,0 STARLINK-4178,1 53277U 22086AM  24043.81933259 -.00000676  00000-0 -24401-4 0  9991,2 53277  53.2179 337.3809 0001678  95.0839 265.0345 15.08843710 86918,6917.869,95.437,540.895,538.573,0.0
53277.0,STARLINK-4178,PAYLOAD,2024-02-12 22:50:36,15.08843457,0.0001634,53.2178,336.7868,111.0082,249.1085,-4.1987e-05,-9.56e-06,0.0,0 STARLINK-4178,1 53277U 22086AM  24043.95181061 -.00000956  00000-0 -41987-4 0  9991,2 53277  53.2178 336.7868 0001634 111.0082 249.1085 15.08843457 87100,6917.87,95.437,540.865,538.604,0.0
53277.0,STARLINK-4178,PAYLOAD,2024-02-13 05:12:08,15.08847673,0.0001375,53.2179,335.5967,97.196,262.9189,4.4426e-05,4.19e-06,0.0,0 STARLINK-4178,1 53277U 22086AM  24044.21676865  .00000419  00000-0  44426-4 0  9995,2 53277  53.2179 335.5967 0001375  97.1960 262.9189 15.08847673 87145,6917.857,95.437,540.673,538.771,0.0
53277.0,STARLINK-4178,PAYLOAD,2024-02-13 22:41:23,15.08844836,0.0001548,53.2168,332.3238,119.727,240.3876,-0.00011508,-2.119e-05,0.0,0 STARLINK-4178,1 53277U 22086AM  24044.94540862 -.00002119  00000-0 -11508-3 0  9997,2 53277  53.2168 332.3238 0001548 119.7270 240.3876 15.08844836 87259,6917.866,95.437,540.801,538.66,0.0
53277.0,STARLINK-4178,PAYLOAD,2024-02-14 01:52:09,15.08848712,0.0001513,53.218,331.731,111.109,249.0064,-2.9113e-05,-7.51e-06,0.0,0 STARLINK-4178,1 53277U 22086AM  24045.07788735 -.00000751  00000-0 -29113-4 0  9997,2 53277  53.2180 331.7310 0001513 111.1090 249.0064 15.08848712 87101,6917.854,95.437,540.765,538.672,0.0
53277.0,STARLINK-4178,PAYLOAD,2024-02-14 11:24:28,15.08842673,0.0001704,53.218,329.9485,93.7348,266.3839,-4.9436e-05,-1.075e-05,0.0,0 STARLINK-4178,1 53277U 22086AM  24045.47533060 -.00001075  00000-0 -49436-4 0  9990,2 53277  53.2180 329.9485 0001704  93.7348 266.3839 15.08842673 87164,6917.872,95.437,540.916,538.558,0.0
53277.0,STARLINK-4178,PAYLOAD,2024-02-14 22:32:10,15.08839982,0.0001576,53.217,327.8653,108.3206,251.7957,6.158e-05,6.92e-06,0.0,0 STARLINK-4178,1 53277U 22086AM  24045.93901262  .00000692  00000-0  61580-4 0  9990,2 53277  53.2170 327.8653 0001576 108.3206 251.7957 15.08839982 87405,6917.88,95.438,540.836,538.655,0.0
53277.0,STARLINK-4178,PAYLOAD,2024-02-15 04:53:42,15.08850671,0.0001333,53.2182,326.6788,96.275,263.8394,0.00025405,3.759e-05,0.0,0 STARLINK-4178,1 53277U 22086AM  24046.20396771  .00003759  00000-0  25405-3 0  9996,2 53277  53.2182 326.6788 0001333  96.2750 263.8394 15.08850671 87445,6917.848,95.437,540.635,538.791,0.0
53277.0,STARLINK-4178,PAYLOAD,2024-02-15 19:12:12,15.08826963,0.0001959,53.2174,324.0015,99.8716,260.2497,-9.3705e-05,-1.779e-05,0.0,0 STARLINK-4178,1 53277U 22086AM  24046.80014517 -.00001779  00000-0 -93705-4 0  9998,2 53277  53.2174 324.0015 0001959  99.8716 260.2497 15.08826963 87369,6917.92,95.438,541.14,538.43,0.0
53277.0,STARLINK-4178,PAYLOAD,2024-02-15 22:22:58,15.0882517,0.000167,53.2178,323.4076,108.4296,251.6878,-0.00010869,-2.017e-05,0.0,0 STARLINK-4178,1 53277U 22086AM  24046.93262589 -.00002017  00000-0 -10869-3 0  9991,2 53277  53.2178 323.4076 0001670 108.4296 251.6878 15.08825170 87550,6917.926,95.438,540.946,538.635,0.0
53277.0,STARLINK-4178,PAYLOAD,2024-02-16 11:06:03,15.08838718,0.0001864,53.2181,321.0308,125.2586,234.858,0.00010432,1.372e-05,0.0,0 STARLINK-4178,1 53277U 22086AM  24047.46254155  .00001372  00000-0  10432-3 0  9997,2 53277  53.2181 321.0308 0001864 125.2586 234.8580 15.08838718 87465,6917.884,95.438,541.039,538.46,0.0
53277.0,STARLINK-4178,PAYLOAD,2024-02-16 22:13:45,15.08840472,0.0001688,53.2183,318.9494,100.3911,259.7272,0.00021912,3.201e-05,0.0,0 STARLINK-4178,1 53277U 22086AM  24047.92622373  .00003201  00000-0  21912-3 0  9997,2 53277  53.2183 318.9494 0001688 100.3911 259.7272 15.08840472 87709,6917.879,95.438,540.912,538.576,0.0
53277.0,STARLINK-4178,PAYLOAD,2024-02-17 10:56:50,15.08843586,0.0001938,53.217,316.5681,83.0626,277.0587,0.0003177,4.772e-05,0.0,0 STARLINK-4178,1 53277U 22086AM  24048.45614437  .00004772  00000-0  31770-3 0  9995,2 53277  53.2170 316.5681 0001938  83.0626 277.0587 15.08843586 87784,6917.869,95.437,541.075,538.394,0.0
53277.0,STARLINK-4178,PAYLOAD,2024-02-17 22:04:33,15.088342,0.0001673,53.2172,314.4882,89.0648,271.0536,6.001e-06,-1.93e-06,0.0,0 STARLINK-4178,1 53277U 22086AM  24048.91982746 -.00000193  00000-0  60010-5 0  9992,2 53277  53.2172 314.4882 0001673  89.0648 271.0536 15.08834200 87851,6917.898,95.438,540.92,538.606,0.0
53277.0,STARLINK-4178,PAYLOAD,2024-02-18 02:50:42,15.0884785,0.0001522,53.218,313.5959,101.3352,258.7811,0.0002617,3.88e-05,0.0,0 STARLINK-4178,1 53277U 22086AM  24049.11854255  .00003880  00000-0  26170-3 0  9990,2 53277  53.2180 313.5959 0001522 101.3352 258.7811 15.08847850 87716,6917.856,95.437,540.774,538.668,0.0
53277.0,STARLINK-4178,PAYLOAD,2024-02-18 10:47:38,15.08842503,0.0001704,53.217,312.1087,86.6661,273.4526,0.00013137,1.803e-05,0.0,0 STARLINK-4178,1 53277U 22086AM  24049.44974570  .00001803  00000-0  13137-3 0  9991,2 53277  53.2170 312.1087 0001704  86.6661 273.4526 15.08842503 87933,6917.873,95.437,540.917,538.559,0.0
53277.0,STARLINK-4178,PAYLOAD,2024-02-18 23:30:42,15.08850111,0.0001371,53.2161,309.7274,90.8893,269.2257,0.00027499,4.092e-05,0.0,0 STARLINK-4178,1 53277U 22086AM  24049.97966057  .00004092  00000-0  27499-3 0  9999,2 53277  53.2161 309.7274 0001371  90.8893 269.2257 15.08850111 88015,6917.849,95.437,540.663,538.766,0.0
53277.0,STARLINK-4178,PAYLOAD,2024-02-19 23:21:30,15.08834999,0.0001416,53.2161,305.2708,70.6479,289.4666,7.7308e-05,9.42e-06,0.0,0 STARLINK-4178,1 53277U 22086AM  24050.97327057  .00000942  00000-0  77308-4 0  9997,2 53277  53.2161 305.2708 0001416  70.6479 289.4666 15.08834999 88164,6917.896,95.438,540.74,538.781,0.0
53277.0,STARLINK-4178,PAYLOAD,2024-02-20 10:29:12,15.08841039,0.0001337,53.2162,303.1892,77.2969,282.8173,0.00016416,2.326e-05,0.0,0 STARLINK-4178,1 53277U 22086AM  24051.43694914  .00002326  00000-0  16416-3 0  9998,2 53277  53.2162 303.1892 0001337  77.2969 282.8173 15.08841039 88236,6917.877,95.437,540.667,538.817,0.0
53277.0,STARLINK-4178,PAYLOAD,2024-02-20 23:12:17,15.08853965,0.0001443,53.2175,300.8094,76.4107,283.7046,0.00035254,5.329e-05,0.0,0 STARLINK-4178,1 53277U 22086AM  24051.96686416  .00005329  00000-0  35254-3 0  9991,2 53277  53.2175 300.8094 0001443  76.4107 283.7046 15.08853965 88310,6917.838,95.437,540.701,538.704,0.0
53277.0,STARLINK-4178,PAYLOAD,2024-02-21 02:23:03,15.08857647,0.000151,53.2173,300.212,84.7285,275.388,0.0004715,7.227e-05,0.0,0 STARLINK-4178,1 53277U 22086AM  24052.09934216  .00007227  00000-0  47150-3 0  9997,2 53277  53.2173 300.2120 0001510  84.7285 275.3880 15.08857647 88163,6917.826,95.436,540.736,538.647,0.0
53277.0,STARLINK-4178,PAYLOAD,2024-02-21 19:52:17,15.08845966,0.0001585,53.2154,296.9365,102.9321,257.1848,0.00017872,2.558e-05,0.0,0 STARLINK-4178,1 53277U 22086AM  24052.82798370  .00002558  00000-0  17872-3 0  9997,2 53277  53.2154 296.9365 0001585 102.9321 257.1848 15.08845966 88275,6917.862,95.437,540.824,538.631,0.0
53277.0,STARLINK-4178,PAYLOAD,2024-02-21 21:27:40,15.08847049,0.0001487,53.216,296.6387,95.2906,264.8256,0.00020858,3.034e-05,0.0,0 STARLINK-4178,1 53277U 22086AM  24052.89422348  .00003034  00000-0  20858-3 0  9991,2 53277  53.2160 296.6387 0001487  95.2906 264.8256 15.08847049 88459,6917.859,95.437,540.753,538.695,0.0
53277.0,STARLINK-4178,PAYLOAD,2024-02-22 08:35:22,15.08847969,0.0001443,53.2169,294.5614,73.4239,286.6912,0.00016417,2.326e-05,0.0,0 STARLINK-4178,1 53277U 22086AM  24053.35790280  .00002326  00000-0  16417-3 0  9995,2 53277  53.2169 294.5614 0001443  73.4239 286.6912 15.08847969 88527,6917.856,95.437,540.719,538.723,0.0
